0 COSMOS 1390
1 13377U 82073C   13281.20297292  .00000019  00000-0  22244-3 0  2461
2 13377 074.0134 267.8592 0030257 160.5226 263.5610 12.53306557428431
0 COSMOS 1390
1 13377U 82073C   13283.46257134 -.00000006  00000-0  64237-4 0  2479
2 13377 074.0134 264.8346 0030235 157.0749 018.6855 12.53306876428717
0 COSMOS 1390
1 13377U 82073C   13285.68302211 -.00000036  00000-0 -12514-3 0  2487
2 13377 074.0137 261.8623 0030200 153.6627 317.2052 12.53307203428996
0 COSMOS 1390
1 13377U 82073C   13288.15534801 -.00000037  00000-0 -13232-3 0  2494
2 13377 074.0143 258.5528 0030174 149.8797 312.1552 12.53307150429301
0 COSMOS 1390
1 13377U 82073C   13290.38400766 -.00000001  00000-0  91085-4 0  2509
2 13377 074.0147 255.5698 0030139 146.4398 287.7315 12.53306908429585
0 COSMOS 1390
1 13377U 82073C   13292.38890956  .00000015  00000-0  19171-3 0  2515
2 13377 074.0149 252.8864 0030122 143.3545 333.7157 12.53306758429831
0 COSMOS 1390
1 13377U 82073C   13295.01157947  .00000004  00000-0  12467-3 0  2524
2 13377 074.0150 249.3765 0030083 139.3488 286.9952 12.53306930430163
